NORAD_CAT_ID,OBJECT_NAME,OBJECT_TYPE,EPOCH,MEAN_MOTION,ECCENTRICITY,INCLINATION,RA_OF_ASC_NODE,ARG_OF_PERICENTER,MEAN_ANOMALY,BSTAR,MEAN_MOTION_DOT,MEAN_MOTION_DDOT,TLE_LINE0,TLE_LINE1,TLE_LINE2,SEMIMAJOR_AXIS,PERIOD,APOGEE,PERIGEE,DECAYED
51733.0,STARLINK-3525,PAYLOAD,2024-07-25 16:24:55,15.08831933,0.0001381,53.2184,96.7475,104.6578,255.4567,0.00016572,2.35e-05,0.0,0 STARLINK-3525,1 51733U 22016V   24207.68397579  .00002350  00000-0  16572-3 0  9993,2 51733  53.2184  96.7475 0001381 104.6578 255.4567 15.08831933135257,6917.905,95.438,540.725,538.815,0.0
51733.0,STARLINK-3525,PAYLOAD,2024-07-26 16:15:41,15.08856233,0.0001178,53.2156,92.2871,93.0755,267.0372,4.6572e-05,4.54e-06,0.0,0 STARLINK-3525,1 51733U 22016V   24208.67756200  .00000454  00000-0  46572-4 0  9990,2 51733  53.2156  92.2871 0001178  93.0755 267.0372 15.08856233135409,6917.831,95.437,540.511,538.881,0.0
51733.0,STARLINK-3525,PAYLOAD,2024-07-27 22:28:01,15.08841374,0.0001396,53.2153,86.6307,116.2425,243.8711,2.4565e-05,1.03e-06,0.0,0 STARLINK-3525,1 51733U 22016V   24209.93612803  .00000103  00000-0  24565-4 0  9999,2 51733  53.2153  86.6307 0001396 116.2425 243.8711 15.08841374134533,6917.876,95.437,540.707,538.775,0.0
51733.0,STARLINK-3525,PAYLOAD,2024-07-28 22:18:48,15.08840804,0.0001544,53.2162,82.1742,89.4289,270.688,2.5194e-05,1.13e-06,0.0,0 STARLINK-3525,1 51733U 22016V   24210.92973116  .00000113  00000-0  25194-4 0  9997,2 51733  53.2162  82.1742 0001544  89.4289 270.6880 15.08840804134689,6917.878,95.438,540.811,538.675,0.0
51733.0,STARLINK-3525,PAYLOAD,2024-07-29 20:34:12,15.08839972,0.000159,53.2167,78.0127,97.5519,262.5654,0.00017281,2.463e-05,0.0,0 STARLINK-3525,1 51733U 22016V   24211.85708807  .00002463  00000-0  17281-3 0  9990,2 51733  53.2167  78.0127 0001590  97.5519 262.5654 15.08839972135888,6917.88,95.438,540.845,538.646,0.0
51733.0,STARLINK-3525,PAYLOAD,2024-07-29 22:09:35,15.08843002,0.0001591,53.2169,77.7176,98.6152,261.5021,0.00021534,3.141e-05,0.0,0 STARLINK-3525,1 51733U 22016V   24211.92332571  .00003141  00000-0  21534-3 0  9999,2 51733  53.2169  77.7176 0001591  98.6152 261.5021 15.08843002134836,6917.871,95.437,540.837,538.636,0.0
51733.0,STARLINK-3525,PAYLOAD,2024-07-30 07:41:54,15.08842867,0.000149,53.2167,75.933,103.8352,256.2806,0.00012649,1.726e-05,0.0,0 STARLINK-3525,1 51733U 22016V   24212.32076720  .00001726  00000-0  12649-3 0  9999,2 51733  53.2167  75.9330 0001490 103.8352 256.2806 15.08842867134891,6917.872,95.437,540.767,538.706,0.0
51733.0,STARLINK-3525,PAYLOAD,2024-07-30 22:00:22,15.0883945,0.0001556,53.2173,73.2578,93.4024,266.7146,7.665e-05,9.32e-06,0.0,0 STARLINK-3525,1 51733U 22016V   24212.91693263  .00000932  00000-0  76650-4 0  9992,2 51733  53.2173  73.2578 0001556  93.4024 266.7146 15.08839450136042,6917.882,95.438,540.823,538.671,0.0
51733.0,STARLINK-3525,PAYLOAD,2024-07-31 07:32:42,15.08812818,0.0001651,53.2166,71.4724,90.3205,269.7977,0.00033472,5.039e-05,0.0,0 STARLINK-3525,1 51733U 22016V   24213.31438504  .00005039  00000-0  33472-3 0  9999,2 51733  53.2166  71.4724 0001651  90.3205 269.7977 15.08812818136101,6917.963,95.439,540.971,538.686,0.0
51733.0,STARLINK-3525,PAYLOAD,2024-07-31 20:15:47,15.08840081,0.0001572,53.2178,69.0944,100.6728,259.4441,-0.00011831,-2.17e-05,0.0,0 STARLINK-3525,1 51733U 22016V   24213.84429911 -.00002170  00000-0 -11831-3 0  9999,2 51733  53.2178  69.0944 0001572 100.6728 259.4441 15.08840081136181,6917.88,95.438,540.833,538.658,0.0
51733.0,STARLINK-3525,PAYLOAD,2024-07-31 21:51:10,15.08838201,0.0001571,53.217,68.7921,75.9685,284.1482,-6.7448e-05,-1.361e-05,0.0,0 STARLINK-3525,1 51733U 22016V   24213.91053904 -.00001361  00000-0 -67448-4 0  9999,2 51733  53.2170  68.7921 0001571  75.9685 284.1482 15.08838201135134,6917.886,95.438,540.838,538.664,0.0
51733.0,STARLINK-3525,PAYLOAD,2024-08-01 13:45:01,15.08840079,0.0001649,53.2173,65.8166,72.803,287.3142,7.518e-05,9.09e-06,0.0,0 STARLINK-3525,1 51733U 22016V   24214.57293400  .00000909  00000-0  75180-4 0  9996,2 51733  53.2173  65.8166 0001649  72.8030 287.3142 15.08840079135237,6917.88,95.438,540.886,538.604,0.0
51733.0,STARLINK-3525,PAYLOAD,2024-08-01 21:41:55,15.08874307,0.0001208,53.2163,64.3335,87.8123,272.3007,-0.00012899,-2.342e-05,0.0,0 STARLINK-3525,1 51733U 22016V   24214.90411832 -.00002342  00000-0 -12899-3 0  9996,2 51733  53.2163  64.3335 0001208  87.8123 272.3007 15.08874307136346,6917.776,95.435,540.476,538.805,0.0
51733.0,STARLINK-3525,PAYLOAD,2024-08-02 07:14:16,15.08837439,0.0001441,53.2172,62.5477,85.4469,274.6687,0.00012915,1.768e-05,0.0,0 STARLINK-3525,1 51733U 22016V   24215.30157427  .00001768  00000-0  12915-3 0  9996,2 51733  53.2172  62.5477 0001441  85.4469 274.6687 15.08837439136400,6917.888,95.438,540.75,538.756,0.0
51733.0,STARLINK-3525,PAYLOAD,2024-08-02 19:57:22,15.08828337,0.0001424,53.2165,60.1694,109.7916,250.323,-3.937e-05,-9.14e-06,0.0,0 STARLINK-3525,1 51733U 22016V   24215.83150716 -.00000914  00000-0 -39370-4 0  9997,2 51733  53.2165  60.1694 0001424 109.7916 250.3230 15.08828337136485,6917.916,95.438,540.766,538.796,0.0
51733.0,STARLINK-3525,PAYLOAD,2024-08-03 13:26:36,15.08845722,0.0001547,53.2181,56.8969,106.9882,253.1279,-3.6298e-05,-8.66e-06,0.0,0 STARLINK-3525,1 51733U 22016V   24216.56013975 -.00000866  00000-0 -36298-4 0  9995,2 51733  53.2181  56.8969 0001547 106.9882 253.1279 15.08845722136590,6917.863,95.437,540.798,538.658,0.0
51733.0,STARLINK-3525,PAYLOAD,2024-08-03 19:48:09,15.08831704,0.0001361,53.2168,55.7115,71.9853,288.1288,-7.6692e-05,-1.508e-05,0.0,0 STARLINK-3525,1 51733U 22016V   24216.82511161 -.00001508  00000-0 -76692-4 0  9990,2 51733  53.2168  55.7115 0001361  71.9853 288.1288 15.08831704136637,6917.906,95.438,540.712,538.829,0.0
51733.0,STARLINK-3525,PAYLOAD,2024-08-04 13:17:24,15.08833214,0.0001337,53.2154,52.4384,77.2681,282.846,0.00027342,4.065e-05,0.0,0 STARLINK-3525,1 51733U 22016V   24217.55375255  .00004065  00000-0  27342-3 0  9999,2 51733  53.2154  52.4384 0001337  77.2681 282.8460 15.08833214135680,6917.901,95.438,540.691,538.841,0.0
51733.0,STARLINK-3525,PAYLOAD,2024-08-04 19:38:55,15.08856943,0.0001531,53.2154,51.2481,86.2245,273.8922,0.00061057,9.447e-05,0.0,0 STARLINK-3525,1 51733U 22016V   24217.81870262  .00009447  00000-0  61057-3 0  9996,2 51733  53.2154  51.2481 0001531  86.2245 273.8922 15.08856943136786,6917.829,95.436,540.753,538.634,0.0
51733.0,STARLINK-3525,PAYLOAD,2024-08-05 19:29:42,15.08858145,0.0001636,53.2165,46.7866,78.3023,281.8152,0.00041626,6.346e-05,0.0,0 STARLINK-3525,1 51733U 22016V   24218.81229724  .00006346  00000-0  41626-3 0  9993,2 51733  53.2165  46.7866 0001636  78.3023 281.8152 15.08858145136933,6917.825,95.436,540.822,538.558,0.0
51733.0,STARLINK-3525,PAYLOAD,2024-08-06 05:02:01,15.08850093,0.0001735,53.2158,45.0019,76.6785,283.44,8.865e-05,1.123e-05,0.0,0 STARLINK-3525,1 51733U 22016V   24219.20973555  .00001123  00000-0  88650-4 0  9992,2 51733  53.2158  45.0019 0001735  76.6785 283.4400 15.08850093136997,6917.85,95.437,540.915,538.514,0.0
51733.0,STARLINK-3525,PAYLOAD,2024-08-06 12:58:56,15.08842704,0.000167,53.218,43.5215,94.8984,265.2199,-0.00012744,-2.316e-05,0.0,0 STARLINK-3525,1 51733U 22016V   24219.54093557 -.00002316  00000-0 -12744-3 0  9991,2 51733  53.2180  43.5215 0001670  94.8984 265.2199 15.08842704135985,6917.872,95.437,540.892,538.582,0.0
51733.0,STARLINK-3525,PAYLOAD,2024-08-06 19:20:29,15.08839791,0.0001579,53.2185,42.3338,112.3392,247.7767,-0.00015861,-2.811e-05,0.0,0 STARLINK-3525,1 51733U 22016V   24219.80589555 -.00002811  00000-0 -15861-3 0  9991,2 51733  53.2185  42.3338 0001579 112.3392 247.7767 15.08839791136024,6917.881,95.438,540.838,538.654,0.0
51733.0,STARLINK-3525,PAYLOAD,2024-08-07 17:35:53,15.08848032,0.0001562,53.2176,38.169,118.1777,241.9373,0.0001169,1.573e-05,0.0,0 STARLINK-3525,1 51733U 22016V   24220.73325295  .00001573  00000-0  11690-3 0  9992,2 51733  53.2176  38.1690 0001562 118.1777 241.9373 15.08848032137221,6917.856,95.437,540.801,538.64,0.0
51733.0,STARLINK-3525,PAYLOAD,2024-08-08 20:37:26,15.0885357,0.0001268,53.216,33.1098,83.0147,277.0989,0.0004202,6.408e-05,0.0,0 STARLINK-3525,1 51733U 22016V   24221.85933603  .00006408  00000-0  42020-3 0  9997,2 51733  53.2160  33.1098 0001268  83.0147 277.0989 15.08853570137399,6917.839,95.437,540.581,538.827,0.0
51733.0,STARLINK-3525,PAYLOAD,2024-08-09 04:34:22,15.0884125,0.0001177,53.2161,31.6224,100.3327,259.7797,0.00011212,1.497e-05,0.0,0 STARLINK-3525,1 51733U 22016V   24222.19053669  .00001497  00000-0  11212-3 0  9992,2 51733  53.2161  31.6224 0001177 100.3327 259.7797 15.08841250137448,6917.877,95.437,540.556,538.927,0.0
51733.0,STARLINK-3525,PAYLOAD,2024-08-09 20:28:13,15.08861822,0.0001172,53.2157,28.6473,94.8679,265.2447,0.00049782,7.648e-05,0.0,0 STARLINK-3525,1 51733U 22016V   24222.85292917  .00007648  00000-0  49782-3 0  9993,2 51733  53.2157  28.6473 0001172  94.8679 265.2447 15.08861822137549,6917.814,95.436,540.489,538.868,0.0
51733.0,STARLINK-3525,PAYLOAD,2024-08-10 10:46:41,15.08853981,0.0001459,53.2158,25.9714,90.3044,269.8116,0.00019736,2.856e-05,0.0,0 STARLINK-3525,1 51733U 22016V   24223.44909022  .00002856  00000-0  19736-3 0  9993,2 51733  53.2158  25.9714 0001459  90.3044 269.8116 15.08853981137633,6917.838,95.437,540.712,538.693,0.0
51733.0,STARLINK-3525,PAYLOAD,2024-08-10 20:18:59,15.08877047,0.0001345,53.2171,24.1859,86.5598,273.5548,0.00076068,0.00011851,0.0,0 STARLINK-3525,1 51733U 22016V   24223.84651944  .00011851  00000-0  76068-3 0  9990,2 51733  53.2171  24.1859 0001345  86.5598 273.5548 15.08877047137690,6917.767,95.435,540.563,538.702,0.0
51733.0,STARLINK-3525,PAYLOAD,2024-08-11 10:37:28,15.08835484,0.0002269,53.2163,21.5124,91.514,268.6112,-0.0001216,-2.223e-05,0.0,0 STARLINK-3525,1 51733U 22016V   24224.44269510 -.00002223  00000-0 -12160-3 0  9999,2 51733  53.2163  21.5124 0002269  91.5140 268.6112 15.08835484137783,6917.894,95.438,541.329,538.19,0.0
